IRIDIUM 150             
1 43257U 18030J   25081.81558683  .00000562  00000+0  19365-3 0  9992
2 43257  86.3937 119.1921 0002007  92.0264 268.1162 14.34221897365466
IRIDIUM 143             
1 43258U 18030K   25081.79656707  .00000076  00000+0  19950-4 0  9997
2 43258  86.3947 119.2756 0001842  91.3828 268.7579 14.34217110365392
IRIDIUM 161             
1 43478U 18047C   25081.89455258  .00000431  00000+0  12201-3 0  9994
2 43478  86.4429 277.0326 0002124  91.2799 268.8645 14.43285985360045
IRIDIUM 152             
1 43479U 18047D   25081.62974635  .00000079  00000+0  21277-4 0  9993
2 43479  86.3904 277.0035 0002188  88.7193 271.4254 14.34218306357763
IRIDIUM 147             
1 43480U 18047E   25081.77562650  .00000041  00000+0  74157-5 0  9996
2 43480  86.3906 276.9396 0002224  94.3297 265.8153 14.34217947357781
IRIDIUM 110             
1 43481U 18047F   25081.64243323  .00000021  00000+0  41630-6 0  9995
2 43481  86.3908 277.0757 0002559  89.6830 270.4659 14.34217752357752
IRIDIUM 162             
1 43482U 18047G   25081.81893147  .00000426  00000+0  12057-3 0  9997
2 43482  86.4428 276.9606 0002310  82.0844 278.0619 14.43280400360023
